NORAD_CAT_ID,OBJECT_NAME,OBJECT_TYPE,EPOCH,MEAN_MOTION,ECCENTRICITY,INCLINATION,RA_OF_ASC_NODE,ARG_OF_PERICENTER,MEAN_ANOMALY,BSTAR,MEAN_MOTION_DOT,MEAN_MOTION_DDOT,TLE_LINE0,TLE_LINE1,TLE_LINE2,SEMIMAJOR_AXIS,PERIOD,APOGEE,PERIGEE,DECAYED
54769.0,STARLINK-5404,PAYLOAD,2023-08-02 15:24:35,15.08851355,8.4e-05,53.2176,349.0846,89.1409,270.968,0.00025343,3.749e-05,0.0,0 STARLINK-5404,1 54769U 22175M   23214.64207841  .00003749  00000-0  25343-3 0  9995,2 54769  53.2176 349.0846 0000840  89.1409 270.9680 15.08851355 34330,6917.846,95.437,540.292,539.13,0.0
54769.0,STARLINK-5404,PAYLOAD,2023-08-03 08:53:50,15.08846175,7.44e-05,53.2171,345.8138,85.5767,274.531,0.00011011,1.465e-05,0.0,0 STARLINK-5404,1 54769U 22175M   23215.37071895  .00001465  00000-0  11011-3 0  9994,2 54769  53.2171 345.8138 0000744  85.5767 274.5310 15.08846175 34449,6917.862,95.437,540.241,539.212,0.0
54769.0,STARLINK-5404,PAYLOAD,2023-08-04 15:06:11,15.08816801,9.42e-05,53.218,340.1635,89.3774,270.7326,-0.00025122,-4.281e-05,0.0,0 STARLINK-5404,1 54769U 22175M   23216.62929885 -.00004281  00000-0 -25122-3 0  9993,2 54769  53.2180 340.1635 0000942  89.3774 270.7326 15.08816801 34638,6917.951,95.439,540.468,539.165,0.0
54769.0,STARLINK-5404,PAYLOAD,2023-08-05 08:35:25,15.08845919,7.52e-05,53.218,336.8925,86.2486,273.8593,0.00065676,0.00010182,0.0,0 STARLINK-5404,1 54769U 22175M   23217.35793707  .00010182  00000-0  65676-3 0  9999,2 54769  53.2180 336.8925 0000752  86.2486 273.8593 15.08845919 34741,6917.862,95.437,540.248,539.207,0.0
54769.0,STARLINK-5404,PAYLOAD,2023-08-05 14:56:57,15.08872653,9.79e-05,53.2182,335.7037,83.002,277.1084,0.0015766,0.00024915,0.0,0 STARLINK-5404,1 54769U 22175M   23217.62289309  .00024915  00000-0  15766-2 0  9990,2 54769  53.2182 335.7037 0000979  83.0020 277.1084 15.08872653 34786,6917.781,95.435,540.323,538.968,0.0
54769.0,STARLINK-5404,PAYLOAD,2023-08-06 00:29:16,15.08850717,0.0001384,53.2172,333.9189,93.0846,267.0305,-0.00034141,-5.719e-05,0.0,0 STARLINK-5404,1 54769U 22175M   23218.02033182 -.00005719  00000-0 -34141-3 0  9993,2 54769  53.2172 333.9189 0001384  93.0846 267.0305 15.08850717 34849,6917.848,95.437,540.67,538.755,0.0
54769.0,STARLINK-5404,PAYLOAD,2023-08-06 17:58:31,15.08846826,7.48e-05,53.2172,330.6498,93.6809,266.4269,0.0018927,0.00029968,0.0,0 STARLINK-5404,1 54769U 22175M   23218.74897261  .00029968  00000-0  18927-2 0  9991,2 54769  53.2172 330.6498 0000748  93.6809 266.4269 15.08846826 34954,6917.86,95.437,540.242,539.207,0.0
54769.0,STARLINK-5404,PAYLOAD,2023-08-07 19:24:40,15.08866532,7.75e-05,53.2168,325.891,92.7319,267.3762,0.0011224,0.00017633,0.0,0 STARLINK-5404,1 54769U 22175M   23219.80880702  .00017633  00000-0  11224-2 0  9990,2 54769  53.2168 325.8910 0000775  92.7319 267.3762 15.08866532 35113,6917.799,95.436,540.2,539.128,0.0
54769.0,STARLINK-5404,PAYLOAD,2023-08-08 00:10:49,15.08856131,0.0001051,53.2165,324.9984,235.3745,124.7148,0.00039451,5.999e-05,0.0,0 STARLINK-5404,1 54769U 22175M   23220.00752175  .00005999  00000-0  39451-3 0  9991,2 54769  53.2165 324.9984 0001051 235.3745 124.7148 15.08856131 35148,6917.831,95.437,540.423,538.969,0.0
54769.0,STARLINK-5404,PAYLOAD,2023-08-08 06:32:23,15.08851806,8.05e-05,53.2163,323.8097,100.0192,260.0891,0.0005326,8.201e-05,0.0,0 STARLINK-5404,1 54769U 22175M   23220.27248954  .00008201  00000-0  53260-3 0  9998,2 54769  53.2163 323.8097 0000805 100.0192 260.0891 15.08851806 35186,6917.844,95.437,540.266,539.152,0.0
54769.0,STARLINK-5404,PAYLOAD,2023-08-09 06:23:10,15.08853548,0.0001177,53.2159,319.3547,68.6841,291.4277,0.00074333,0.00011566,0.0,0 STARLINK-5404,1 54769U 22175M   23221.26608884  .00011566  00000-0  74333-3 0  9992,2 54769  53.2159 319.3547 0001177  68.6841 291.4277 15.08853548 35332,6917.839,95.437,540.518,538.89,0.0
54769.0,STARLINK-5404,PAYLOAD,2023-08-09 14:20:05,15.08841024,8.52e-05,53.2152,317.8632,89.9227,270.1863,0.0002047,2.972e-05,0.0,0 STARLINK-5404,1 54769U 22175M   23221.59728955  .00002972  00000-0  20470-3 0  9994,2 54769  53.2152 317.8632 0000852  89.9227 270.1863 15.08841024 35382,6917.877,95.437,540.332,539.153,0.0
54769.0,STARLINK-5404,PAYLOAD,2023-08-09 19:06:14,15.08852385,7.81e-05,53.215,316.9701,92.084,268.0241,0.00036335,5.502e-05,0.0,0 STARLINK-5404,1 54769U 22175M   23221.79600603  .00005502  00000-0  36335-3 0  9994,2 54769  53.2150 316.9701 0000781  92.0840 268.0241 15.08852385 35416,6917.843,95.437,540.248,539.167,0.0
54769.0,STARLINK-5404,PAYLOAD,2023-08-10 06:13:57,15.0884098,0.0001022,53.2149,314.8862,63.7974,296.3123,0.00020623,2.996e-05,0.0,0 STARLINK-5404,1 54769U 22175M   23222.25969230  .00002996  00000-0  20623-3 0  9997,2 54769  53.2149 314.8862 0001022  63.7974 296.3123 15.08840980 35489,6917.877,95.437,540.449,539.035,0.0
54769.0,STARLINK-5404,PAYLOAD,2023-08-11 09:15:30,15.08840891,9.22e-05,53.2155,309.8345,75.3019,284.8076,0.00018709,2.691e-05,0.0,0 STARLINK-5404,1 54769U 22175M   23223.38577288  .00002691  00000-0  18709-3 0  9994,2 54769  53.2155 309.8345 0000922  75.3019 284.8076 15.08840891 35652,6917.878,95.437,540.38,539.105,0.0
54769.0,STARLINK-5404,PAYLOAD,2023-08-11 17:12:26,15.08851438,8.7e-05,53.2163,308.3476,78.5232,281.5858,0.00038254,5.807e-05,0.0,0 STARLINK-5404,1 54769U 22175M   23223.71696920  .00005807  00000-0  38254-3 0  9995,2 54769  53.2163 308.3476 0000870  78.5232 281.5858 15.08851438 35701,6917.845,95.437,540.312,539.109,0.0
54769.0,STARLINK-5404,PAYLOAD,2023-08-12 09:06:17,15.08843586,8.19e-05,53.2167,305.3728,77.7112,282.3971,0.00026198,3.885e-05,0.0,0 STARLINK-5404,1 54769U 22175M   23224.37937208  .00003885  00000-0  26198-3 0  9993,2 54769  53.2167 305.3728 0000819  77.7112 282.3971 15.08843586 35804,6917.869,95.437,540.301,539.168,0.0
54769.0,STARLINK-5404,PAYLOAD,2023-08-13 04:10:55,15.08839513,9.37e-05,53.2169,301.8057,84.3741,275.7358,8.852e-05,1.121e-05,0.0,0 STARLINK-5404,1 54769U 22175M   23225.17425312  .00001121  00000-0  88520-4 0  9999,2 54769  53.2169 301.8057 0000937  84.3741 275.7358 15.08839513 35928,6917.882,95.438,540.395,539.099,0.0
54769.0,STARLINK-5404,PAYLOAD,2023-08-14 10:23:15,15.08841794,0.0001086,53.2172,296.1566,101.8545,258.2569,0.00014119,1.96e-05,0.0,0 STARLINK-5404,1 54769U 22175M   23226.43281449  .00001960  00000-0  14119-3 0  9993,2 54769  53.2172 296.1566 0001086 101.8545 258.2569 15.08841794 36112,6917.875,95.437,540.491,538.989,0.0
54769.0,STARLINK-5404,PAYLOAD,2023-08-15 16:35:36,15.08820934,0.0001359,53.2167,290.504,92.7573,267.3575,0.0014965,0.00023597,0.0,0 STARLINK-5404,1 54769U 22175M   23227.69139317  .00023597  00000-0  14965-2 0  9996,2 54769  53.2167 290.5040 0001359  92.7573 267.3575 15.08820934 36305,6917.939,95.439,540.744,538.864,0.0
54769.0,STARLINK-5404,PAYLOAD,2023-08-15 21:21:44,15.08834905,2.69e-05,53.2168,289.6143,116.0676,244.0343,-1.9494e-07,-2.9e-06,0.0,0 STARLINK-5404,1 54769U 22175M   23227.89009639 -.00000290  00000-0 -19494-6 0  9994,2 54769  53.2168 289.6143 0000269 116.0676 244.0343 15.08834905 36333,6917.896,95.438,539.947,539.575,0.0
54769.0,STARLINK-5404,PAYLOAD,2023-08-17 09:55:36,15.08850115,0.0001077,53.2145,282.7736,78.5957,281.5156,0.00038677,5.875e-05,0.0,0 STARLINK-5404,1 54769U 22175M   23229.41361756  .00005875  00000-0  38677-3 0  9998,2 54769  53.2145 282.7736 0001077  78.5957 281.5156 15.08850115 36566,6917.849,95.437,540.46,538.969,0.0
54769.0,STARLINK-5404,PAYLOAD,2023-08-18 03:24:51,15.08844186,0.0001621,53.214,279.5025,83.8505,276.2671,0.00020591,2.991e-05,0.0,0 STARLINK-5404,1 54769U 22175M   23230.14225924  .00002991  00000-0  20591-3 0  9998,2 54769  53.2140 279.5025 0001621  83.8505 276.2671 15.08844186 36675,6917.868,95.437,540.854,538.611,0.0
54769.0,STARLINK-5404,PAYLOAD,2023-08-18 14:32:32,15.08855871,0.0001473,53.2152,277.4173,124.9042,235.2089,0.00033595,5.065e-05,0.0,0 STARLINK-5404,1 54769U 22175M   23230.60593217  .00005065  00000-0  33595-3 0  9995,2 54769  53.2152 277.4173 0001473 124.9042 235.2089 15.08855871 36746,6917.832,95.437,540.716,538.678,0.0
54769.0,STARLINK-5404,PAYLOAD,2023-08-19 09:37:10,15.08837241,0.0001047,53.2148,273.8501,79.7929,280.3181,-0.00013207,-2.389e-05,0.0,0 STARLINK-5404,1 54769U 22175M   23231.40081346 -.00002389  00000-0 -13207-3 0  9995,2 54769  53.2148 273.8501 0001047  79.7929 280.3181 15.08837241 36862,6917.889,95.438,540.478,539.03,0.0
54769.0,STARLINK-5404,PAYLOAD,2023-08-20 07:52:34,15.08844562,0.0001307,53.2149,269.6898,83.1704,276.9437,0.00014973,2.096e-05,0.0,0 STARLINK-5404,1 54769U 22175M   23232.32817301  .00002096  00000-0  14973-3 0  9999,2 54769  53.2149 269.6898 0001307  83.1704 276.9437 15.08844562 37000,6917.866,95.437,540.636,538.827,0.0
54769.0,STARLINK-5404,PAYLOAD,2023-08-21 02:57:12,15.08834911,0.000139,53.2156,266.1196,99.1559,260.9591,-4.2678e-05,-9.67e-06,0.0,0 STARLINK-5404,1 54769U 22175M   23233.12305743 -.00000967  00000-0 -42678-4 0  9991,2 54769  53.2156 266.1196 0001390  99.1559 260.9591 15.08834911 37122,6917.896,95.438,540.723,538.799,0.0
54769.0,STARLINK-5404,PAYLOAD,2023-08-22 09:09:32,15.088361,0.0001489,53.2151,260.4698,96.4834,263.6328,8.6114e-05,1.083e-05,0.0,0 STARLINK-5404,1 54769U 22175M   23234.38162319  .00001083  00000-0  86114-4 0  9991,2 54769  53.2151 260.4698 0001489  96.4834 263.6328 15.08836100 37317,6917.892,95.438,540.787,538.727,0.0
54769.0,STARLINK-5404,PAYLOAD,2023-08-23 10:35:42,15.08841162,0.0001388,53.2143,255.7136,91.3191,268.7961,0.00019702,2.849e-05,0.0,0 STARLINK-5404,1 54769U 22175M   23235.44146467  .00002849  00000-0  19702-3 0  9994,2 54769  53.2143 255.7136 0001388  91.3191 268.7961 15.08841162 37470,6917.877,95.437,540.702,538.782,0.0
54769.0,STARLINK-5404,PAYLOAD,2023-08-24 13:37:15,15.08844088,0.0001446,53.2147,250.6573,89.2229,270.8928,0.00017934,2.568e-05,0.0,0 STARLINK-5404,1 54769U 22175M   23236.56754547  .00002568  00000-0  17934-3 0  9995,2 54769  53.2147 250.6573 0001446  89.2229 270.8928 15.08844088 37642,6917.868,95.437,540.733,538.733,0.0
